GLOBALSTAR M084         
1 38040U 11080A   25097.93768524 -.00000083  00000+0  11672-3 0  9993
2 38040  52.0001 262.3389 0000578 126.0608  41.3330 12.62264655613790
GLOBALSTAR M080         
1 38041U 11080B   25097.90046057 -.00000068  00000+0  19995-3 0  9990
2 38041  52.0053 264.0348 0000846 137.7856 340.2227 12.62291699613912
GLOBALSTAR M082         
1 38042U 11080C   25097.84773716 -.00000100  00000+0  18701-4 0  9995
2 38042  52.0069 219.6321 0000835  84.1448  94.6483 12.62264929614615
GLOBALSTAR M092         
1 38043U 11080D   25097.97257465 -.00000056  00000+0  26543-3 0  9990
2 38043  52.0091 309.6264 0000720  89.9232  56.9325 12.62262292613081
GLOBALSTAR M090         
1 38044U 11080E   25097.86801596 -.00000098  00000+0  32982-4 0  9990
2 38044  51.9881 213.4697 0000744 104.6359  45.9648 12.62268900614775
GLOBALSTAR M086         
1 38045U 11080F   25097.73724044 -.00000101  00000+0  14847-4 0  9994
2 38045  51.9893 214.4134 0001425 144.4358  12.0213 12.62269002614669
GLOBALSTAR M097         
1 39072U 13005A   25097.80860106 -.00000093  00000+0  60609-4 0  9999
2 39072  52.0023 128.6714 0000535 112.1183 247.9740 12.62271609561926
GLOBALSTAR M093         
1 39073U 13005B   25097.78189322 -.00000082  00000+0  11879-3 0  9993
2 39073  51.9787 122.1657 0000487 107.0158 253.0762 12.62263554561874
